     2.11           N: GPS NAV DATA                         RINEX VERSION / TYPE
teqc  2018Dec12     gpsops              20220117 01:04:00UTCPGM / RUN BY / DATE
Linux 2.6.32-573.12.1.x86_64|x86_64|gcc -static|Linux 64|=+ COMMENT
CHPI                                    MARKER NAME         COMMENT
41609M003                               MARKER NUMBER       COMMENT
4164613.9484 -4162456.9866 -2445028.7316                    COMMENT
                                                            COMMENT
This data is provided as a public service by NASA/JPL.      COMMENT
No warranty is expressed or implied regarding suitability   COMMENT
for use.  For further information, contact:                 COMMENT
Dave Stowers, NASA/JPL m/s 238-600                          COMMENT
4800 Oak Grove Drive, Pasadena CA 91109 USA                 COMMENT
                                                            END OF HEADER
25 22  1 16 16  0  0.0 2.717780880630D-04 5.570655048359D-12 0.000000000000D+00
    8.200000000000D+01 5.015625000000D+01 4.373753612965D-09 4.734138034252D-01
    2.739951014519D-06 1.037436455954D-02 1.055188477039D-05 5.153728660583D+03
    5.760000000000D+04-1.713633537292D-07 2.763137371785D+00 1.303851604462D-07
    9.583988924065D-01 1.745625000000D+02 9.723408410989D-01-7.901400553620D-09
   -5.907388923603D-10 1.000000000000D+00 2.193000000000D+03 0.000000000000D+00
    2.000000000000D+00 0.000000000000D+00 5.587935447693D-09 8.200000000000D+01
    5.041800000000D+04 4.000000000000D+00
26 22  1 16 16  0  0.0 1.749088987708D-04 3.410605131648D-12 0.000000000000D+00
    3.700000000000D+01 3.718750000000D+01 4.819129307508D-09-1.758105937998D-01
    1.871958374977D-06 6.782665732317D-03 9.734183549881D-06 5.153687803268D+03
    5.760000000000D+04 8.195638656616D-08 2.716730814675D+00 8.754432201385D-08
    9.392140603670D-01 1.787187500000D+02 3.508471400888D-01-8.103551831175D-09
   -5.543088034723D-10 1.000000000000D+00 2.193000000000D+03 0.000000000000D+00
    2.000000000000D+00 0.000000000000D+00 6.984919309616D-09 3.700000000000D+01
    5.041800000000D+04 4.000000000000D+00
10 22  1 16 16  0  0.0-2.951347269118D-04-9.663381206337D-12 0.000000000000D+00
    3.700000000000D+01-1.047500000000D+02 3.994809256983D-09 2.334244814666D-02
   -5.420297384262D-06 7.435942068696D-03 8.897855877876D-06 5.153685352325D+03
    5.760000000000D+04 2.421438694000D-08-3.760170201496D-01 1.229345798492D-07
    9.724062072045D-01 2.158125000000D+02-2.535777690782D+00-7.801753545779D-09
    8.821796034643D-11 1.000000000000D+00 2.193000000000D+03 0.000000000000D+00
    2.000000000000D+00 0.000000000000D+00 2.328306436539D-09 3.700000000000D+01
    5.041800000000D+04 4.000000000000D+00
15 22  1 16 16  0  0.0-9.108101949096D-05 2.842170943040D-12 0.000000000000D+00
    2.100000000000D+01-4.156250000000D+00 5.204502502705D-09-2.966248217173D+00
   -4.284083843231D-07 1.392322813626D-02 8.886680006981D-06 5.153725233078D+03
    5.760000000000D+04 1.937150955200D-07 5.495323905727D-01-2.253800630569D-07
    9.299655215282D-01 1.896250000000D+02 1.070289087437D+00-7.946045270394D-09
    6.296690853877D-10 1.000000000000D+00 2.193000000000D+03 0.000000000000D+00
    2.000000000000D+00 0.000000000000D+00-1.071020960808D-08 2.100000000000D+01
    5.041800000000D+04 4.000000000000D+00
31 22  1 16 16  0  0.0-1.602354459465D-04-1.818989403546D-12 0.000000000000D+00
    1.760000000000D+02-1.065625000000D+01 5.103426863928D-09 9.187648604157D-01
   -2.663582563400D-07 1.045989559498D-02 5.461275577545D-06 5.153664417267D+03
    5.760000000000D+04-9.313225746155D-09 1.745024723490D+00 1.322478055954D-07
    9.547618220508D-01 2.694062500000D+02 3.665204625684D-01-8.240343243372D-09
   -4.382325398586D-10 1.000000000000D+00 2.193000000000D+03 0.000000000000D+00
    2.000000000000D+00 0.000000000000D+00-1.303851604462D-08 1.760000000000D+02
    5.041800000000D+04 4.000000000000D+00
 5 22  1 16 16  0  0.0-6.810482591391D-05-1.250555214938D-12 0.000000000000D+00
    9.000000000000D+00-1.309687500000D+02 4.170173704473D-09-1.604232056807D+00
   -6.685033440590D-06 5.898156552576D-03 8.746981620789D-06 5.153658216476D+03
    5.760000000000D+04 1.136213541031D-07-4.132055431894D-01 1.862645149231D-08
    9.595475464240D-01 2.038125000000D+02 1.012541467113D+00-7.783538501335D-09
    1.150047904111D-10 1.000000000000D+00 2.193000000000D+03 0.000000000000D+00
    2.000000000000D+00 0.000000000000D+00-1.117587089539D-08 9.000000000000D+00
    5.041800000000D+04 4.000000000000D+00
12 22  1 16 16  0  0.0-1.567346043885D-04-5.684341886081D-12 0.000000000000D+00
    9.500000000000D+01 6.103125000000D+01 3.975879897071D-09 7.056124165951D-01
    3.181397914886D-06 8.585522649810D-03 1.125596463680D-05 5.153626300812D+03
    5.760000000000D+04-1.583248376846D-07 2.839453738143D+00-7.450580596924D-09
    9.710272108838D-01 1.683437500000D+02 1.237848466317D+00-7.714607058635D-09
   -5.571660653459D-10 1.000000000000D+00 2.193000000000D+03 0.000000000000D+00
    2.000000000000D+00 0.000000000000D+00-1.257285475731D-08 9.500000000000D+01
    5.041800000000D+04 4.000000000000D+00
13 22  1 16 16  0  0.0 2.463227137923D-04 6.025402399246D-12 0.000000000000D+00
    9.800000000000D+01 9.281250000000D+00 4.551261006861D-09-2.567287345777D+00
    3.837049007416D-07 5.793555057608D-03 7.631257176399D-06 5.153669284821D+03
    5.760000000000D+04 1.210719347000D-07 8.071525203423D-01-6.519258022308D-08
    9.684036545622D-01 2.356875000000D+02 9.701052184677D-01-7.748894201118D-09
    6.007393089178D-10 1.000000000000D+00 2.193000000000D+03 0.000000000000D+00
    2.000000000000D+00 0.000000000000D+00-1.117587089539D-08 9.800000000000D+01
    5.041800000000D+04 4.000000000000D+00
16 22  1 16 16  0  0.0-4.564812406898D-04-5.343281372916D-12 0.000000000000D+00
    7.300000000000D+01 5.921875000000D+01 3.956236221690D-09-1.150293609249D+00
    3.123655915260D-06 1.265011471696D-02 9.965151548386D-06 5.153592912674D+03
    5.760000000000D+04 3.278255462646D-07 2.858080818035D+00 6.332993507385D-08
    9.710005257951D-01 1.925937500000D+02 6.977845906490D-01-7.595316375414D-09
   -4.314465429089D-10 1.000000000000D+00 2.193000000000D+03 0.000000000000D+00
    2.000000000000D+00 0.000000000000D+00-1.024454832077D-08 7.300000000000D+01
    5.041800000000D+04 4.000000000000D+00
27 22  1 16 16  0  0.0 7.184129208326D-05 2.148681232939D-11 0.000000000000D+00
    2.100000000000D+01 1.187812500000D+02 4.005881146743D-09-2.024754155092D+00
    6.141141057014D-06 1.002241310198D-02 4.615634679794D-06 5.153651174545D+03
    5.760000000000D+04 2.048909664154D-08-2.469149481850D+00-1.229345798492D-07
    9.739065745237D-01 2.987812500000D+02 6.300323310555D-01-7.793896075627D-09
    2.582250418238D-10 1.000000000000D+00 2.193000000000D+03 0.000000000000D+00
    2.000000000000D+00 0.000000000000D+00 1.862645149231D-09 2.100000000000D+01
    5.332800000000D+04 4.000000000000D+00
32 22  1 16 16  0  0.0-5.152216181159D-05-6.139089236967D-12 0.000000000000D+00
    8.600000000000D+01 4.687500000000D+00 4.699838624286D-09-1.343986745414D+00
    3.054738044739D-07 5.419335211627D-03 8.281320333481D-06 5.153760538101D+03
    5.760000000000D+04 9.499490261078D-08 6.658571540460D-01 7.450580596924D-09
    9.579078624903D-01 2.173437500000D+02-2.373685731230D+00-7.875328039024D-09
    6.018107821204D-10 1.000000000000D+00 2.193000000000D+03 0.000000000000D+00
    2.000000000000D+00 0.000000000000D+00 4.656612873077D-10 8.600000000000D+01
    5.344200000000D+04 4.000000000000D+00
10 22  1 16 18  0  0.0-2.952041104436D-04-9.663381206337D-12 0.000000000000D+00
    3.800000000000D+01-1.130937500000D+02 3.999809465262D-09 1.073554377643D+00
   -5.852431058884D-06 7.434914587066D-03 8.799135684967D-06 5.153683395386D+03
    6.480000000000D+04-7.450580596924D-08-3.760724764482D-01 7.450580596924D-08
    9.724066621721D-01 2.178750000000D+02-2.535818952386D+00-7.755680198068D-09
   -7.857470152314D-12 1.000000000000D+00 2.193000000000D+03 0.000000000000D+00
    2.000000000000D+00 0.000000000000D+00 2.328306436539D-09 3.800000000000D+01
    5.761800000000D+04 4.000000000000D+00
23 22  1 16 18  0  0.0 1.055607572198D-05-3.865352482535D-12 0.000000000000D+00
    9.900000000000D+01-1.263437500000D+02 4.021238929314D-09 2.423379248753D+00
   -6.508082151413D-06 1.955818501301D-03 8.890405297279D-06 5.153706769943D+03
    6.480000000000D+04-2.607703208923D-08-4.007669081332D-01 4.656612873077D-08
    9.674415269885D-01 2.086562500000D+02 2.913765463467D+00-7.736750838156D-09
    7.714607058635D-11 1.000000000000D+00 2.193000000000D+03 0.000000000000D+00
    2.000000000000D+00 0.000000000000D+00-8.381903171539D-09 3.550000000000D+02
    5.761800000000D+04 4.000000000000D+00
18 22  1 16 18  0  0.0 2.595894038677D-04-7.389644451905D-12 0.000000000000D+00
    6.500000000000D+01-5.640625000000D+01 4.411612332790D-09-3.014542532551D+00
   -2.894550561905D-06 2.086072927341D-03 3.706663846970D-07 5.153628286362D+03
    6.480000000000D+04-1.303851604462D-08-1.400504051632D+00 4.470348358154D-08
    9.701883809717D-01 3.783437500000D+02 3.111143263102D+00-8.286059433349D-09
   -1.153619481453D-10 1.000000000000D+00 2.193000000000D+03 0.000000000000D+00
    2.000000000000D+00 0.000000000000D+00-8.381903171539D-09 6.500000000000D+01
    5.761800000000D+04 4.000000000000D+00
26 22  1 16 18  0  0.0 1.749335788190D-04 3.410605131648D-12 0.000000000000D+00
    3.800000000000D+01 3.687500000000D+01 4.877703175916D-09 8.743164425607D-01
    2.203509211540D-06 6.782363518141D-03 9.976327419281D-06 5.153687484741D+03
    6.480000000000D+04-2.607703208923D-08 2.716672967968D+00 1.285225152969D-07
    9.392101002477D-01 1.724687500000D+02 3.508952305948D-01-8.045692278235D-09
   -6.157399337541D-10 1.000000000000D+00 2.193000000000D+03 0.000000000000D+00
    2.000000000000D+00 0.000000000000D+00 6.984919309616D-09 3.800000000000D+01
    5.761800000000D+04 4.000000000000D+00
